{
  "type": "FeatureCollection",
  "features": [
    {
      "type": "Feature",
      "properties": {
        "norad_id": 41581,
        "name": "INTELSAT 31 (IS-31)",
        "group": "intelsat",
        "lat": 0.009028035709409849,
        "lon": 100.18843521070308,
        "alt_km": 35790.376411406636,
        "timestamp": "2025-12-10T07:43:54.441827+00:00",
        "meta_object_name": "INTELSAT 31 (IS-31)",
        "meta_object_id": "2016-035A",
        "meta_epoch": "2025-12-09T13:18:03.280032",
        "meta_mean_motion": 1.00271737,
        "meta_eccentricity": 0.000194,
        "meta_inclination": 0.017,
        "meta_ra_of_asc_node": 272.3085,
        "meta_arg_of_pericenter": 308.9308,
        "meta_mean_anomaly": 321.7513,
        "meta_ephemeris_type": 0,
        "meta_classification_type": "U",
        "meta_norad_cat_id": 41581,
        "meta_element_set_no": 999,
        "meta_rev_at_epoch": 3478,
        "meta_bstar": 0,
        "meta_mean_motion_dot": -1.48e-06,
        "meta_mean_motion_ddot": 0,
        "tle_line1": "1 41581U 16035A   25343.55420463 -.00000148  00000+0  00000+0 0  9992",
        "tle_line2": "2 41581   0.0170 272.3085 0001940 308.9308 321.7513  1.00271737 34783"
      },
      "geometry": {
        "type": "Point",
        "coordinates": [
          100.18843521070308,
          0.009028035709409849
        ]
      }
    },
    {
      "type": "Feature",
      "properties": {
        "norad_id": 41747,
        "name": "INTELSAT 36 (IS-36)",
        "group": "intelsat",
        "lat": -0.030122192035568124,
        "lon": -96.250876952604,
        "alt_km": 35782.96774583932,
        "timestamp": "2025-12-10T07:43:54.441838+00:00",
        "meta_object_name": "INTELSAT 36 (IS-36)",
        "meta_object_id": "2016-053A",
        "meta_epoch": "2025-12-09T10:28:32.982240",
        "meta_mean_motion": 1.00269892,
        "meta_eccentricity": 0.00014122,
        "meta_inclination": 0.0115,
        "meta_ra_of_asc_node": 359.5133,
        "meta_arg_of_pericenter": 316.9203,
        "meta_mean_anomaly": 347.6248,
        "meta_ephemeris_type": 0,
        "meta_classification_type": "U",
        "meta_norad_cat_id": 41747,
        "meta_element_set_no": 999,
        "meta_rev_at_epoch": 3404,
        "meta_bstar": 0,
        "meta_mean_motion_dot": -2.2e-07,
        "meta_mean_motion_ddot": 0,
        "tle_line1": "1 41747U 16053A   25343.43649285 -.00000022  00000+0  00000+0 0  9999",
        "tle_line2": "2 41747   0.0115 359.5133 0001412 316.9203 347.6248  1.00269892 34045"
      },
      "geometry": {
        "type": "Point",
        "coordinates": [
          -96.250876952604,
          -0.030122192035568124
        ]
      }
    },
    {
      "type": "Feature",
      "properties": {
        "norad_id": 41945,
        "name": "INTELSAT 32E (IS-32E)",
        "group": "intelsat",
        "lat": 0.027133646182554233,
        "lon": 152.0938229069074,
        "alt_km": 35788.4918299447,
        "timestamp": "2025-12-10T07:43:54.441850+00:00",
        "meta_object_name": "INTELSAT 32E (IS-32E)",
        "meta_object_id": "2017-007B",
        "meta_epoch": "2025-12-09T11:39:18.704160",
        "meta_mean_motion": 1.00269368,
        "meta_eccentricity": 4.31e-05,
        "meta_inclination": 0.0272,
        "meta_ra_of_asc_node": 68.2271,
        "meta_arg_of_pericenter": 288.178,
        "meta_mean_anomaly": 213.7239,
        "meta_ephemeris_type": 0,
        "meta_classification_type": "U",
        "meta_norad_cat_id": 41945,
        "meta_element_set_no": 999,
        "meta_rev_at_epoch": 3232,
        "meta_bstar": 0,
        "meta_mean_motion_dot": -2.67e-06,
        "meta_mean_motion_ddot": 0,
        "tle_line1": "1 41945U 17007B   25343.48563315 -.00000267  00000+0  00000+0 0  9994",
        "tle_line2": "2 41945   0.0272  68.2271 0000431 288.1780 213.7239  1.00269368 32326"
      },
      "geometry": {
        "type": "Point",
        "coordinates": [
          152.0938229069074,
          0.027133646182554233
        ]
      }
    },
    {
      "type": "Feature",
      "properties": {
        "norad_id": 42818,
        "name": "INTELSAT 35E (IS-35E)",
        "group": "intelsat",
        "lat": -0.0029221946562947724,
        "lon": 160.73961176719737,
        "alt_km": 35789.278585507505,
        "timestamp": "2025-12-10T07:43:54.441861+00:00",
        "meta_object_name": "INTELSAT 35E (IS-35E)",
        "meta_object_id": "2017-041A",
        "meta_epoch": "2025-12-09T09:59:05.804160",
        "meta_mean_motion": 1.00269353,
        "meta_eccentricity": 0.00023078,
        "meta_inclination": 0.0186,
        "meta_ra_of_asc_node": 333.6977,
        "meta_arg_of_pericenter": 291.5297,
        "meta_mean_anomaly": 288.4535,
        "meta_ephemeris_type": 0,
        "meta_classification_type": "U",
        "meta_norad_cat_id": 42818,
        "meta_element_set_no": 999,
        "meta_rev_at_epoch": 3091,
        "meta_bstar": 0,
        "meta_mean_motion_dot": -2.36e-06,
        "meta_mean_motion_ddot": 0,
        "tle_line1": "1 42818U 17041A   25343.41603940 -.00000236  00000+0  00000+0 0  9990",
        "tle_line2": "2 42818   0.0186 333.6977 0002307 291.5297 288.4535  1.00269353 30912"
      },
      "geometry": {
        "type": "Point",
        "coordinates": [
          160.73961176719737,
          -0.0029221946562947724
        ]
      }
    },
    {
      "type": "Feature",
      "properties": {
        "norad_id": 42950,
        "name": "INTELSAT 37E (IS-37E)",
        "group": "intelsat",
        "lat": 0.0014051378415747334,
        "lon": 177.23254063837115,
        "alt_km": 35783.08731331638,
        "timestamp": "2025-12-10T07:43:54.441873+00:00",
        "meta_object_name": "INTELSAT 37E (IS-37E)",
        "meta_object_id": "2017-059A",
        "meta_epoch": "2025-12-09T10:03:50.348736",
        "meta_mean_motion": 1.00270735,
        "meta_eccentricity": 0.00033791,
        "meta_inclination": 0.0166,
        "meta_ra_of_asc_node": 10.0825,
        "meta_arg_of_pericenter": 243.6968,
        "meta_mean_anomaly": 317.5906,
        "meta_ephemeris_type": 0,
        "meta_classification_type": "U",
        "meta_norad_cat_id": 42950,
        "meta_element_set_no": 999,
        "meta_rev_at_epoch": 3016,
        "meta_bstar": 0,
        "meta_mean_motion_dot": -1.39e-06,
        "meta_mean_motion_ddot": 0,
        "tle_line1": "1 42950U 17059A   25343.41933274 -.00000139  00000+0  00000+0 0  9994",
        "tle_line2": "2 42950   0.0166  10.0825 0003379 243.6968 317.5906  1.00270735 30167"
      },
      "geometry": {
        "type": "Point",
        "coordinates": [
          177.23254063837115,
          0.0014051378415747334
        ]
      }
    },
    {
      "type": "Feature",
      "properties": {
        "norad_id": 43632,
        "name": "AZERSPACE 2 (IS-38)",
        "group": "intelsat",
        "lat": -0.03392802588275032,
        "lon": -119.627354457716,
        "alt_km": 35780.223283159175,
        "timestamp": "2025-12-10T07:43:54.441885+00:00",
        "meta_object_name": "AZERSPACE 2 (IS-38)",
        "meta_object_id": "2018-074A",
        "meta_epoch": "2025-12-09T13:47:13.951392",
        "meta_mean_motion": 1.00270529,
        "meta_eccentricity": 0.0001542,
        "meta_inclination": 0.0155,
        "meta_ra_of_asc_node": 340.9903,
        "meta_arg_of_pericenter": 279.6716,
        "meta_mean_anomaly": 69.8172,
        "meta_ephemeris_type": 0,
        "meta_classification_type": "U",
        "meta_norad_cat_id": 43632,
        "meta_element_set_no": 999,
        "meta_rev_at_epoch": 2654,
        "meta_bstar": 0,
        "meta_mean_motion_dot": 1.39e-06,
        "meta_mean_motion_ddot": 0,
        "tle_line1": "1 43632U 18074A   25343.57446703  .00000139  00000+0  00000+0 0  9992",
        "tle_line2": "2 43632   0.0155 340.9903 0001542 279.6716  69.8172  1.00270529 26545"
      },
      "geometry": {
        "type": "Point",
        "coordinates": [
          -119.627354457716,
          -0.03392802588275032
        ]
      }
    },
    {
      "type": "Feature",
      "properties": {
        "norad_id": 43633,
        "name": "HORIZONS-3E",
        "group": "intelsat",
        "lat": 0.015811907171915947,
        "lon": 4.288439727482482,
        "alt_km": 35786.19758302171,
        "timestamp": "2025-12-10T07:43:54.441896+00:00",
        "meta_object_name": "HORIZONS-3E",
        "meta_object_id": "2018-074B",
        "meta_epoch": "2025-12-09T14:22:40.555200",
        "meta_mean_motion": 1.00267499,
        "meta_eccentricity": 0.0001175,
        "meta_inclination": 0.0427,
        "meta_ra_of_asc_node": 177.8689,
        "meta_arg_of_pericenter": 108.9563,
        "meta_mean_anomaly": 176.4435,
        "meta_ephemeris_type": 0,
        "meta_classification_type": "U",
        "meta_norad_cat_id": 43633,
        "meta_element_set_no": 999,
        "meta_rev_at_epoch": 2644,
        "meta_bstar": 0,
        "meta_mean_motion_dot": -2.9e-07,
        "meta_mean_motion_ddot": 0,
        "tle_line1": "1 43633U 18074B   25343.59908050 -.00000029  00000+0  00000+0 0  9992",
        "tle_line2": "2 43633   0.0427 177.8689 0001175 108.9563 176.4435  1.00267499 26440"
      },
      "geometry": {
        "type": "Point",
        "coordinates": [
          4.288439727482482,
          0.015811907171915947
        ]
      }
    }
  ]
}